[{"OBJECT_NAME":"STARLINK-34725","OBJECT_ID":"2025-152B","EPOCH":"2026-03-09T14:37:42.633408","MEAN_MOTION":15.05656146,"ECCENTRICITY":0.0002655,"INCLINATION":97.6021,"RA_OF_ASC_NODE":285.4073,"ARG_OF_PERICENTER":81.3772,"MEAN_ANOMALY":278.7755,"EPHEMERIS_TYPE":0,"CLASSIFICATION_TYPE":"U","NORAD_CAT_ID":64843,"ELEMENT_SET_NO":999,"REV_AT_EPOCH":3540,"BSTAR":0.00057169,"MEAN_MOTION_DOT":8.199e-5,"MEAN_MOTION_DDOT":0},{"OBJECT_NAME":"ARIANE 44LP DEB","OBJECT_ID":"1988-109J","EPOCH":"2026-03-09T10:00:55.647936","MEAN_MOTION":2.33840534,"ECCENTRICITY":0.71584634,"INCLINATION":6.5284,"RA_OF_ASC_NODE":227.1185,"ARG_OF_PERICENTER":74.5557,"MEAN_ANOMALY":348.7926,"EPHEMERIS_TYPE":0,"CLASSIFICATION_TYPE":"U","NORAD_CAT_ID":25542,"ELEMENT_SET_NO":999,"REV_AT_EPOCH":23613,"BSTAR":0.0012060366,"MEAN_MOTION_DOT":2.42e-6,"MEAN_MOTION_DDOT":0}]
